FLOCK 4G-23             
1 62647U 25009AQ  26197.20608097  .00022243  00000+0  66010-3 0  9996
2 62647  97.3927 278.8978 0003221 170.2617 189.8689 15.34814767 83371
FLOCK 4G-34             
1 62650U 25009AT  26197.17274833  .00005374  00000+0  18891-3 0  9993
2 62650  97.3962 278.6178 0002447 160.4706 199.6628 15.29785524 83344
FLOCK 4G-21             
1 62651U 25009AU  26197.22044198  .00019046  00000+0  60066-3 0  9991
2 62651  97.3992 279.6736 0003530 186.4425 173.6772 15.32913149 83408
FLOCK 4G-31             
1 62652U 25009AV  26197.20277461  .00005404  00000+0  19110-3 0  9998
2 62652  97.3969 278.6194 0001983 156.0952 204.0381 15.29591740 83341
FLOCK 4G-4              
1 62659U 25009BC  26197.17355257  .00019817  00000+0  63902-3 0  9992
2 62659  97.3945 278.4061 0004755 189.4916 170.6237 15.32188449140943
FLOCK 4G-6              
1 62660U 25009BD  26197.19168510  .00004760  00000+0  16661-3 0  9991
2 62660  97.3940 278.4605 0002962 196.4839 163.6306 15.29986947140937
FLOCK 4G-2              
1 62661U 25009BE  26197.18505543  .00005458  00000+0  18860-3 0  9990
2 62661  97.4010 279.0971 0003840 197.3366 162.7744 15.30339167140968
FLOCK 4G-5              
1 62663U 25009BG  26197.17959572  .00004788  00000+0  16288-3 0  9993
2 62663  97.4025 279.4931 0003590 178.1556 181.9699 15.30915429 83370
FLOCK 4G-1              
1 62666U 25009BK  26197.17003577  .00005324  00000+0  18484-3 0  9998
2 62666  97.4020 279.0613 0004091 195.2233 164.8885 15.30198497 83342
FLOCK 4G-14             
1 62667U 25009BL  26197.20143021  .00005585  00000+0  19643-3 0  9999
2 62667  97.4024 278.8885 0004298 190.1511 169.9643 15.29746916 83337
FLOCK 4G-10             
1 62670U 25009BP  26197.21227612  .00005444  00000+0  19097-3 0  9990
2 62670  97.3922 278.1957 0003785 208.7841 151.3191 15.29849445140970
FLOCK 4G-36             
1 62675U 25009BU  26197.20682035  .00005617  00000+0  19711-3 0  9993
2 62675  97.4012 278.8155 0004436 196.0546 164.0555 15.29823665 83335
FLOCK 4G-15             
1 62678U 25009BX  26197.21369393  .00005860  00000+0  20493-3 0  9995
2 62678  97.4015 278.9652 0004679 193.3435 166.7682 15.29913956140988
FLOCK 4G-30             
1 62679U 25009BY  26197.21959016  .00020577  00000+0  62685-3 0  9994
2 62679  97.3917 278.4984 0004465 193.2325 166.8802 15.33997882140993
FLOCK 4G-18             
1 62680U 25009BZ  26197.16984164  .00019637  00000+0  63200-3 0  9991
2 62680  97.4010 278.8430 0006242 207.5239 152.5673 15.32245398140971
FLOCK 4G-17             
1 62681U 25009CA  26197.17456247  .00005748  00000+0  19996-3 0  9990
2 62681  97.3920 278.3962 0004193 209.2700 150.8306 15.30094843140981
