{"fetched_at":"2026-07-16T17:46:07.288Z","source":"https://celestrak.org/NORAD/elements/gp.php?GROUP=planet&FORMAT=JSON","constellation":"superdove","records":[{"OBJECT_NAME":"FLOCK 4G-23","OBJECT_ID":"2025-009AQ","EPOCH":"2026-07-16T04:56:45.395808","CLASSIFICATION_TYPE":"U","MEAN_MOTION":15.34814767,"ECCENTRICITY":0.00032212,"INCLINATION":97.3927,"RA_OF_ASC_NODE":278.8978,"ARG_OF_PERICENTER":170.2617,"MEAN_ANOMALY":189.8689,"EPHEMERIS_TYPE":0,"NORAD_CAT_ID":62647,"ELEMENT_SET_NO":999,"REV_AT_EPOCH":8337,"BSTAR":0.00066010481,"MEAN_MOTION_DOT":0.00022243,"MEAN_MOTION_DDOT":0},{"OBJECT_NAME":"FLOCK 4G-34","OBJECT_ID":"2025-009AT","EPOCH":"2026-07-16T04:08:45.455712","CLASSIFICATION_TYPE":"U","MEAN_MOTION":15.29785524,"ECCENTRICITY":0.00024476,"INCLINATION":97.3962,"RA_OF_ASC_NODE":278.6178,"ARG_OF_PERICENTER":160.4706,"MEAN_ANOMALY":199.6628,"EPHEMERIS_TYPE":0,"NORAD_CAT_ID":62650,"ELEMENT_SET_NO":999,"REV_AT_EPOCH":8334,"BSTAR":0.00018891369,"MEAN_MOTION_DOT":0.00005374,"MEAN_MOTION_DDOT":0},{"OBJECT_NAME":"FLOCK 4G-21","OBJECT_ID":"2025-009AU","EPOCH":"2026-07-16T05:17:26.187072","CLASSIFICATION_TYPE":"U","MEAN_MOTION":15.32913149,"ECCENTRICITY":0.00035304,"INCLINATION":97.3992,"RA_OF_ASC_NODE":279.6736,"ARG_OF_PERICENTER":186.4425,"MEAN_ANOMALY":173.6772,"EPHEMERIS_TYPE":0,"NORAD_CAT_ID":62651,"ELEMENT_SET_NO":999,"REV_AT_EPOCH":8340,"BSTAR":0.00060066006,"MEAN_MOTION_DOT":0.00019046,"MEAN_MOTION_DDOT":0},{"OBJECT_NAME":"FLOCK 4G-31","OBJECT_ID":"2025-009AV","EPOCH":"2026-07-16T04:51:59.726304","CLASSIFICATION_TYPE":"U","MEAN_MOTION":15.2959174,"ECCENTRICITY":0.00019831,"INCLINATION":97.3969,"RA_OF_ASC_NODE":278.6194,"ARG_OF_PERICENTER":156.0952,"MEAN_ANOMALY":204.0381,"EPHEMERIS_TYPE":0,"NORAD_CAT_ID":62652,"ELEMENT_SET_NO":999,"REV_AT_EPOCH":8334,"BSTAR":0.00019109943,"MEAN_MOTION_DOT":0.00005404,"MEAN_MOTION_DDOT":0},{"OBJECT_NAME":"FLOCK 4G-4","OBJECT_ID":"2025-009BC","EPOCH":"2026-07-16T04:09:54.942048","CLASSIFICATION_TYPE":"U","MEAN_MOTION":15.32188449,"ECCENTRICITY":0.00047551,"INCLINATION":97.3945,"RA_OF_ASC_NODE":278.4061,"ARG_OF_PERICENTER":189.4916,"MEAN_ANOMALY":170.6237,"EPHEMERIS_TYPE":0,"NORAD_CAT_ID":62659,"ELEMENT_SET_NO":999,"REV_AT_EPOCH":14094,"BSTAR":0.00063902064,"MEAN_MOTION_DOT":0.00019817,"MEAN_MOTION_DDOT":0},{"OBJECT_NAME":"FLOCK 4G-6","OBJECT_ID":"2025-009BD","EPOCH":"2026-07-16T04:36:01.592640","CLASSIFICATION_TYPE":"U","MEAN_MOTION":15.29986947,"ECCENTRICITY":0.00029628,"INCLINATION":97.394,"RA_OF_ASC_NODE":278.4605,"ARG_OF_PERICENTER":196.4839,"MEAN_ANOMALY":163.6306,"EPHEMERIS_TYPE":0,"NORAD_CAT_ID":62660,"ELEMENT_SET_NO":999,"REV_AT_EPOCH":14093,"BSTAR":0.00016660958,"MEAN_MOTION_DOT":0.0000476,"MEAN_MOTION_DDOT":0},{"OBJECT_NAME":"FLOCK 4G-2","OBJECT_ID":"2025-009BE","EPOCH":"2026-07-16T04:26:28.789152","CLASSIFICATION_TYPE":"U","MEAN_MOTION":15.30339167,"ECCENTRICITY":0.00038404,"INCLINATION":97.401,"RA_OF_ASC_NODE":279.0971,"ARG_OF_PERICENTER":197.3366,"MEAN_ANOMALY":162.7744,"EPHEMERIS_TYPE":0,"NORAD_CAT_ID":62661,"ELEMENT_SET_NO":999,"REV_AT_EPOCH":14096,"BSTAR":0.00018859527,"MEAN_MOTION_DOT":0.00005458,"MEAN_MOTION_DDOT":0},{"OBJECT_NAME":"FLOCK 4G-5","OBJECT_ID":"2025-009BG","EPOCH":"2026-07-16T04:18:37.070208","CLASSIFICATION_TYPE":"U","MEAN_MOTION":15.30915429,"ECCENTRICITY":0.00035902,"INCLINATION":97.4025,"RA_OF_ASC_NODE":279.4931,"ARG_OF_PERICENTER":178.1556,"MEAN_ANOMALY":181.9699,"EPHEMERIS_TYPE":0,"NORAD_CAT_ID":62663,"ELEMENT_SET_NO":999,"REV_AT_EPOCH":8337,"BSTAR":0.00016288403,"MEAN_MOTION_DOT":0.00004788,"MEAN_MOTION_DDOT":0},{"OBJECT_NAME":"FLOCK 4G-1","OBJECT_ID":"2025-009BK","EPOCH":"2026-07-16T04:04:51.090528","CLASSIFICATION_TYPE":"U","MEAN_MOTION":15.30198497,"ECCENTRICITY":0.00040919,"INCLINATION":97.402,"RA_OF_ASC_NODE":279.0613,"ARG_OF_PERICENTER":195.2233,"MEAN_ANOMALY":164.8885,"EPHEMERIS_TYPE":0,"NORAD_CAT_ID":62666,"ELEMENT_SET_NO":999,"REV_AT_EPOCH":8334,"BSTAR":0.00018483631,"MEAN_MOTION_DOT":0.00005324,"MEAN_MOTION_DDOT":0},{"OBJECT_NAME":"FLOCK 4G-14","OBJECT_ID":"2025-009BL","EPOCH":"2026-07-16T04:50:03.570144","CLASSIFICATION_TYPE":"U","MEAN_MOTION":15.29746916,"ECCENTRICITY":0.00042988,"INCLINATION":97.4024,"RA_OF_ASC_NODE":278.8885,"ARG_OF_PERICENTER":190.1511,"MEAN_ANOMALY":169.9643,"EPHEMERIS_TYPE":0,"NORAD_CAT_ID":62667,"ELEMENT_SET_NO":999,"REV_AT_EPOCH":8333,"BSTAR":0.00019643414,"MEAN_MOTION_DOT":0.00005585,"MEAN_MOTION_DDOT":0},{"OBJECT_NAME":"FLOCK 4G-10","OBJECT_ID":"2025-009BP","EPOCH":"2026-07-16T05:05:40.656768","CLASSIFICATION_TYPE":"U","MEAN_MOTION":15.29849445,"ECCENTRICITY":0.00037853,"INCLINATION":97.3922,"RA_OF_ASC_NODE":278.1957,"ARG_OF_PERICENTER":208.7841,"MEAN_ANOMALY":151.3191,"EPHEMERIS_TYPE":0,"NORAD_CAT_ID":62670,"ELEMENT_SET_NO":999,"REV_AT_EPOCH":14097,"BSTAR":0.00019096686,"MEAN_MOTION_DOT":0.00005444,"MEAN_MOTION_DDOT":0},{"OBJECT_NAME":"FLOCK 4G-36","OBJECT_ID":"2025-009BU","EPOCH":"2026-07-16T04:57:49.278240","CLASSIFICATION_TYPE":"U","MEAN_MOTION":15.29823665,"ECCENTRICITY":0.00044361,"INCLINATION":97.4012,"RA_OF_ASC_NODE":278.8155,"ARG_OF_PERICENTER":196.0546,"MEAN_ANOMALY":164.0555,"EPHEMERIS_TYPE":0,"NORAD_CAT_ID":62675,"ELEMENT_SET_NO":999,"REV_AT_EPOCH":8333,"BSTAR":0.00019710778,"MEAN_MOTION_DOT":0.00005617,"MEAN_MOTION_DDOT":0},{"OBJECT_NAME":"FLOCK 4G-15","OBJECT_ID":"2025-009BX","EPOCH":"2026-07-16T05:07:43.155552","CLASSIFICATION_TYPE":"U","MEAN_MOTION":15.29913956,"ECCENTRICITY":0.00046792,"INCLINATION":97.4015,"RA_OF_ASC_NODE":278.9652,"ARG_OF_PERICENTER":193.3435,"MEAN_ANOMALY":166.7682,"EPHEMERIS_TYPE":0,"NORAD_CAT_ID":62678,"ELEMENT_SET_NO":999,"REV_AT_EPOCH":14098,"BSTAR":0.00020493023,"MEAN_MOTION_DOT":0.0000586,"MEAN_MOTION_DDOT":0},{"OBJECT_NAME":"FLOCK 4G-30","OBJECT_ID":"2025-009BY","EPOCH":"2026-07-16T05:16:12.589824","CLASSIFICATION_TYPE":"U","MEAN_MOTION":15.33997882,"ECCENTRICITY":0.00044658,"INCLINATION":97.3917,"RA_OF_ASC_NODE":278.4984,"ARG_OF_PERICENTER":193.2325,"MEAN_ANOMALY":166.8802,"EPHEMERIS_TYPE":0,"NORAD_CAT_ID":62679,"ELEMENT_SET_NO":999,"REV_AT_EPOCH":14099,"BSTAR":0.00062684604,"MEAN_MOTION_DOT":0.00020577,"MEAN_MOTION_DDOT":0},{"OBJECT_NAME":"FLOCK 4G-18","OBJECT_ID":"2025-009BZ","EPOCH":"2026-07-16T04:04:34.317696","CLASSIFICATION_TYPE":"U","MEAN_MOTION":15.32245398,"ECCENTRICITY":0.00062423,"INCLINATION":97.401,"RA_OF_ASC_NODE":278.843,"ARG_OF_PERICENTER":207.5239,"MEAN_ANOMALY":152.5673,"EPHEMERIS_TYPE":0,"NORAD_CAT_ID":62680,"ELEMENT_SET_NO":999,"REV_AT_EPOCH":14097,"BSTAR":0.00063199552,"MEAN_MOTION_DOT":0.00019637,"MEAN_MOTION_DDOT":0},{"OBJECT_NAME":"FLOCK 4G-17","OBJECT_ID":"2025-009CA","EPOCH":"2026-07-16T04:11:22.197408","CLASSIFICATION_TYPE":"U","MEAN_MOTION":15.30094843,"ECCENTRICITY":0.00041935,"INCLINATION":97.392,"RA_OF_ASC_NODE":278.3962,"ARG_OF_PERICENTER":209.27,"MEAN_ANOMALY":150.8306,"EPHEMERIS_TYPE":0,"NORAD_CAT_ID":62681,"ELEMENT_SET_NO":999,"REV_AT_EPOCH":14098,"BSTAR":0.00019995586,"MEAN_MOTION_DOT":0.00005748,"MEAN_MOTION_DDOT":0}]}
